OBJECT_NAME,OBJECT_ID,EPOCH,MEAN_MOTION,ECCENTRICITY,INCLINATION,RA_OF_ASC_NODE,ARG_OF_PERICENTER,MEAN_ANOMALY,EPHEMERIS_TYPE,CLASSIFICATION_TYPE,NORAD_CAT_ID,ELEMENT_SET_NO,REV_AT_EPOCH,BSTAR,MEAN_MOTION_DOT,MEAN_MOTION_DDOT
VICTUS HAZE PUMA,2026-142A,2026-06-27T05:12:35.028576,15.20723192,.002105,97.4481,75.7268,291.4986,68.4005,0,U,69646,999,119,.1934E-3,.4207E-4,0
HOKUSHIN-1,1998-067YH,2026-06-26T22:13:03.643104,15.50242635,.00062292,51.6326,251.8488,258.3282,101.7008,0,U,69648,999,116,.42215392E-3,.2393E-3,0
STARLINK-37656,2026-143A,2026-06-27T04:00:03.000096,15.91496347,.0001082,97.2845,221.4664,66.2414,248.3479,0,U,69649,999,207,-.81164E-2,-.2572391E-1,.17568E-2
STARLINK-37646,2026-143B,2026-06-27T04:00:03.000096,15.93918940,.0001128,97.2843,221.4678,72.6051,245.6129,0,U,69650,999,207,-.73079E-2,-.2625808E-1,.18814E-2
STARLINK-37749,2026-143C,2026-06-27T04:00:03.000096,15.94017718,.0000761,97.2844,221.4699,69.1996,253.6953,0,U,69651,999,207,-.19629E-2,-.717062E-2,.16533E-3
STARLINK-37819,2026-143D,2026-06-27T04:00:03.000096,15.92725466,.0000992,97.2845,221.4688,68.6972,252.1003,0,U,69652,999,207,-.77864E-2,-.2628706E-1,.18593E-2
STARLINK-37729,2026-143E,2026-06-27T04:00:03.000096,15.94203560,.0001228,97.2846,221.4703,44.9962,278.7657,0,U,69653,999,207,-.73176E-2,-.2668978E-1,.19502E-2
STARLINK-37838,2026-143F,2026-06-27T04:00:03.000096,15.92277209,.0000917,97.2845,221.4695,49.5229,273.4515,0,U,69654,999,207,-.39737E-2,-.132011E-1,.50499E-3
STARLINK-37884,2026-143G,2026-06-27T04:00:03.000096,15.93669151,.0000989,97.2843,221.4719,71.2273,255.9783,0,U,69655,999,207,-.47919E-2,-.1706413E-1,.82418E-3
STARLINK-37876,2026-143H,2026-06-27T04:00:03.000096,15.94887915,.000108,97.2843,221.4721,35.9251,292.6999,0,U,69656,999,197,-.56319E-2,-.2133035E-1,.12702E-2
STARLINK-37784,2026-143J,2026-06-27T04:00:03.000096,15.94831369,.000109,97.2844,221.4742,74.8743,258.5751,0,U,69657,999,197,-.69575E-2,-.2623465E-1,.18987E-2
STARLINK-37851,2026-143K,2026-06-27T04:00:03.000096,15.94111482,.000104,97.2841,221.4736,62.0063,270.2960,0,U,69658,999,196,-.45702E-2,-.1666128E-1,.79197E-3
STARLINK-37229,2026-143L,2026-06-27T04:00:03.000096,15.92832821,.0001103,97.2842,221.4732,66.0216,265.7076,0,U,69659,999,201,-.77994E-2,-.2647759E-1,.18884E-2
STARLINK-37556,2026-143M,2026-06-27T04:00:03.000096,15.93706201,.0000977,97.2843,221.4745,68.1251,266.3036,0,U,69660,999,201,-.75299E-2,-.2675392E-1,.19479E-2
STARLINK-37867,2026-143N,2026-06-27T04:00:03.000096,15.94543506,.0000905,97.2841,221.4756,73.0984,263.9602,0,U,69661,999,197,-.44238E-2,-.1650069E-1,.78134E-3
STARLINK-37852,2026-143P,2026-06-27T04:00:03.000096,15.93598690,.0001,97.2839,221.4755,61.2914,276.2756,0,U,69662,999,197,-.73649E-2,-.2602246E-1,.18411E-2
STARLINK-37554,2026-143Q,2026-06-27T04:00:03.000096,15.95033753,.000103,97.2838,221.4769,75.0537,266.1679,0,U,69663,999,201,-.64956E-2,-.2476277E-1,.16979E-2
STARLINK-37830,2026-143R,2026-06-27T04:00:03.000096,15.93819615,.000095,97.2838,221.4765,67.1065,273.5274,0,U,69664,999,196,-.73732E-2,-.2635411E-1,.18929E-2
STARLINK-37837,2026-143S,2026-06-27T04:00:03.000096,15.95055566,.0001076,97.2837,221.4777,83.2693,260.7454,0,U,69665,999,197,-.64775E-2,-.2472249E-1,.16929E-2
STARLINK-37943,2026-143T,2026-06-27T04:00:03.000096,15.95345162,.000127,97.2839,221.4788,54.7613,290.8020,0,U,69666,999,197,-.67509E-2,-.2616329E-1,.19003E-2
STARLINK-37941,2026-143U,2026-06-27T04:00:03.000096,15.95044549,.0000961,97.2837,221.4785,49.4227,295.4121,0,U,69667,999,197,-.52952E-2,-.2023382E-1,.1151E-2
STARLINK-37930,2026-143V,2026-06-27T04:00:03.000096,15.95126446,.0000981,97.2839,221.4799,66.2357,281.9480,0,U,69668,999,196,-.6411E-2,-.2456193E-1,.16728E-2
STARLINK-37945,2026-143W,2026-06-27T04:00:03.000096,15.96383878,.0001231,97.2839,221.4806,52.3098,297.2106,0,U,69669,999,197,-.64524E-2,-.2644378E-1,.19664E-2
STARLINK-37948,2026-143X,2026-06-27T04:00:03.000096,15.96211318,.0001,97.2837,221.4824,63.6759,290.3981,0,U,69670,999,197,-.15529E-2,-.638015E-2,.13608E-3
STARLINK-37949,2026-143Y,2026-06-27T04:00:03.000096,15.96707588,.0001021,97.2836,221.4831,65.2369,290.8057,0,U,69671,999,197,-.58448E-2,-.243821E-1,.16802E-2
STARLINK-37946,2026-143Z,2026-06-27T04:00:03.000096,15.94653828,.0000859,97.2839,221.4821,75.3724,277.7573,0,U,69672,999,197,-.17744E-2,-.670547E-2,.14683E-3
TJS-26A,2026-144A,2026-06-23T07:54:55.514880,2.27958502,.73145613,19.5157,324.7456,179.7910,181.1077,0,U,69674,999,2,.31526459E-3,.963E-4,-.166614E-6
