VICTUS HAZE PUMA        
1 69646U 26142A   26178.21707209  .00004207  00000+0  19340-3 0  9990
2 69646  97.4481  75.7268 0021050 291.4986  68.4005 15.20723192  1194
HOKUSHIN-1              
1 69648U 98067YH  26177.92573661  .00023930  00000+0  42215-3 0  9998
2 69648  51.6326 251.8488 0006229 258.3282 101.7008 15.50242635  1161
STARLINK-37656          
1 69649U 26143A   26178.16670139 -.02572391  17568-2 -81164-2 0  9999
2 69649  97.2845 221.4664 0001082  66.2414 248.3479 15.91496347  2075
STARLINK-37646          
1 69650U 26143B   26178.16670139 -.02625808  18814-2 -73079-2 0  9994
2 69650  97.2843 221.4678 0001128  72.6051 245.6129 15.93918940  2071
STARLINK-37749          
1 69651U 26143C   26178.16670139 -.00717062  16533-3 -19629-2 0  9995
2 69651  97.2844 221.4699 0000761  69.1996 253.6953 15.94017718  2075
STARLINK-37819          
1 69652U 26143D   26178.16670139 -.02628706  18593-2 -77864-2 0  9996
2 69652  97.2845 221.4688 0000992  68.6972 252.1003 15.92725466  2073
STARLINK-37729          
1 69653U 26143E   26178.16670139 -.02668978  19502-2 -73176-2 0  9995
2 69653  97.2846 221.4703 0001228  44.9962 278.7657 15.94203560  2079
STARLINK-37838          
1 69654U 26143F   26178.16670139 -.01320110  50499-3 -39737-2 0  9994
2 69654  97.2845 221.4695 0000917  49.5229 273.4515 15.92277209  2074
STARLINK-37884          
1 69655U 26143G   26178.16670139 -.01706413  82418-3 -47919-2 0  9996
2 69655  97.2843 221.4719 0000989  71.2273 255.9783 15.93669151  2074
STARLINK-37876          
1 69656U 26143H   26178.16670139 -.02133035  12702-2 -56319-2 0  9994
2 69656  97.2843 221.4721 0001080  35.9251 292.6999 15.94887915  1970
STARLINK-37784          
1 69657U 26143J   26178.16670139 -.02623465  18987-2 -69575-2 0  9995
2 69657  97.2844 221.4742 0001090  74.8743 258.5751 15.94831369  1973
STARLINK-37851          
1 69658U 26143K   26178.16670139 -.01666128  79197-3 -45702-2 0  9995
2 69658  97.2841 221.4736 0001040  62.0063 270.2960 15.94111482  1962
STARLINK-37229          
1 69659U 26143L   26178.16670139 -.02647759  18884-2 -77994-2 0  9999
2 69659  97.2842 221.4732 0001103  66.0216 265.7076 15.92832821  2013
STARLINK-37556          
1 69660U 26143M   26178.16670139 -.02675392  19479-2 -75299-2 0  9992
2 69660  97.2843 221.4745 0000977  68.1251 266.3036 15.93706201  2016
STARLINK-37867          
1 69661U 26143N   26178.16670139 -.01650069  78134-3 -44238-2 0  9999
2 69661  97.2841 221.4756 0000905  73.0984 263.9602 15.94543506  1970
STARLINK-37852          
1 69662U 26143P   26178.16670139 -.02602246  18411-2 -73649-2 0  9994
2 69662  97.2839 221.4755 0001000  61.2914 276.2756 15.93598690  1976
STARLINK-37554          
1 69663U 26143Q   26178.16670139 -.02476277  16979-2 -64956-2 0  9996
2 69663  97.2838 221.4769 0001030  75.0537 266.1679 15.95033753  2012
STARLINK-37830          
1 69664U 26143R   26178.16670139 -.02635411  18929-2 -73732-2 0  9993
2 69664  97.2838 221.4765 0000950  67.1065 273.5274 15.93819615  1960
STARLINK-37837          
1 69665U 26143S   26178.16670139 -.02472249  16929-2 -64775-2 0  9997
2 69665  97.2837 221.4777 0001076  83.2693 260.7454 15.95055566  1977
STARLINK-37943          
1 69666U 26143T   26178.16670139 -.02616329  19003-2 -67509-2 0  9991
2 69666  97.2839 221.4788 0001270  54.7613 290.8020 15.95345162  1970
STARLINK-37941          
1 69667U 26143U   26178.16670139 -.02023382  11510-2 -52952-2 0  9994
2 69667  97.2837 221.4785 0000961  49.4227 295.4121 15.95044549  1972
STARLINK-37930          
1 69668U 26143V   26178.16670139 -.02456193  16728-2 -64110-2 0  9990
2 69668  97.2839 221.4799 0000981  66.2357 281.9480 15.95126446  1967
STARLINK-37945          
1 69669U 26143W   26178.16670139 -.02644378  19664-2 -64524-2 0  9996
2 69669  97.2839 221.4806 0001231  52.3098 297.2106 15.96383878  1975
STARLINK-37948          
1 69670U 26143X   26178.16670139 -.00638015  13608-3 -15529-2 0  9991
2 69670  97.2837 221.4824 0001000  63.6759 290.3981 15.96211318  1972
STARLINK-37949          
1 69671U 26143Y   26178.16670139 -.02438210  16802-2 -58448-2 0  9994
2 69671  97.2836 221.4831 0001021  65.2369 290.8057 15.96707588  1976
STARLINK-37946          
1 69672U 26143Z   26178.16670139 -.00670547  14683-3 -17744-2 0  9994
2 69672  97.2839 221.4821 0000859  75.3724 277.7573 15.94653828  1976
TJS-26A                 
1 69674U 26144A   26174.32980920  .00009630 -16661-6  31526-3 0  9997
2 69674  19.5157 324.7456 7314561 179.7910 181.1077  2.27958502    21
